[{"OBJECT_NAME":"SL-14 R/B","OBJECT_ID":"1986-006B","EPOCH":"2026-04-02T09:52:39.399168","MEAN_MOTION":14.86857048,"ECCENTRICITY":0.00761533,"INCLINATION":82.5258,"RA_OF_ASC_NODE":237.4066,"ARG_OF_PERICENTER":192.9885,"MEAN_ANOMALY":166.9374,"EPHEMERIS_TYPE":0,"CLASSIFICATION_TYPE":"U","NORAD_CAT_ID":16496,"ELEMENT_SET_NO":999,"REV_AT_EPOCH":15273,"BSTAR":0.00014406607,"MEAN_MOTION_DOT":1.381e-5,"MEAN_MOTION_DDOT":0},{"OBJECT_NAME":"COSMOS 1743","OBJECT_ID":"1986-034A","EPOCH":"2026-04-02T19:58:04.889856","MEAN_MOTION":15.60716827,"ECCENTRICITY":0.0005327,"INCLINATION":82.5319,"RA_OF_ASC_NODE":48.4534,"ARG_OF_PERICENTER":158.1506,"MEAN_ANOMALY":201.9979,"EPHEMERIS_TYPE":0,"CLASSIFICATION_TYPE":"U","NORAD_CAT_ID":16719,"ELEMENT_SET_NO":999,"REV_AT_EPOCH":18401,"BSTAR":0.00097335,"MEAN_MOTION_DOT":0.00081497,"MEAN_MOTION_DDOT":0},{"OBJECT_NAME":"SL-14 R/B","OBJECT_ID":"1986-046B","EPOCH":"2026-04-02T15:37:13.195488","MEAN_MOTION":14.85614907,"ECCENTRICITY":0.00239469,"INCLINATION":82.4813,"RA_OF_ASC_NODE":57.5367,"ARG_OF_PERICENTER":145.577,"MEAN_ANOMALY":214.7004,"EPHEMERIS_TYPE":0,"CLASSIFICATION_TYPE":"U","NORAD_CAT_ID":16792,"ELEMENT_SET_NO":999,"REV_AT_EPOCH":12996,"BSTAR":7.0949504e-5,"MEAN_MOTION_DOT":6.42e-6,"MEAN_MOTION_DDOT":0},{"OBJECT_NAME":"SL-14 R/B","OBJECT_ID":"1986-055B","EPOCH":"2026-04-02T19:13:38.559936","MEAN_MOTION":14.85664958,"ECCENTRICITY":0.0017383,"INCLINATION":82.5169,"RA_OF_ASC_NODE":104.0044,"ARG_OF_PERICENTER":250.8832,"MEAN_ANOMALY":282.0924,"EPHEMERIS_TYPE":0,"CLASSIFICATION_TYPE":"U","NORAD_CAT_ID":16882,"ELEMENT_SET_NO":999,"REV_AT_EPOCH":12294,"BSTAR":6.3435e-5,"MEAN_MOTION_DOT":5.75e-6,"MEAN_MOTION_DDOT":0},{"OBJECT_NAME":"AJISAI (EGS)","OBJECT_ID":"1986-061A","EPOCH":"2026-04-02T19:13:28.954848","MEAN_MOTION":12.44515665,"ECCENTRICITY":0.0011359,"INCLINATION":50.0119,"RA_OF_ASC_NODE":19.205,"ARG_OF_PERICENTER":349.0536,"MEAN_ANOMALY":50.9425,"EPHEMERIS_TYPE":0,"CLASSIFICATION_TYPE":"U","NORAD_CAT_ID":16908,"ELEMENT_SET_NO":999,"REV_AT_EPOCH":47100,"BSTAR":3.9193e-5,"MEAN_MOTION_DOT":-9.2e-7,"MEAN_MOTION_DDOT":0},{"OBJECT_NAME":"SL-14 R/B","OBJECT_ID":"1987-024B","EPOCH":"2026-04-02T21:03:36.311040","MEAN_MOTION":14.86157422,"ECCENTRICITY":0.0018267,"INCLINATION":82.5261,"RA_OF_ASC_NODE":70.0233,"ARG_OF_PERICENTER":175.6964,"MEAN_ANOMALY":184.4413,"EPHEMERIS_TYPE":0,"CLASSIFICATION_TYPE":"U","NORAD_CAT_ID":17567,"ELEMENT_SET_NO":999,"REV_AT_EPOCH":9172,"BSTAR":8.492e-5,"MEAN_MOTION_DOT":7.71e-6,"MEAN_MOTION_DDOT":0},{"OBJECT_NAME":"COSMOS 1833","OBJECT_ID":"1987-027A","EPOCH":"2026-04-02T18:53:38.381856","MEAN_MOTION":14.13044999,"ECCENTRICITY":0.0023041,"INCLINATION":70.9165,"RA_OF_ASC_NODE":275.3675,"ARG_OF_PERICENTER":178.6747,"MEAN_ANOMALY":181.444,"EPHEMERIS_TYPE":0,"CLASSIFICATION_TYPE":"U","NORAD_CAT_ID":17589,"ELEMENT_SET_NO":999,"REV_AT_EPOCH":1372,"BSTAR":-0.00014193,"MEAN_MOTION_DOT":-3.14e-6,"MEAN_MOTION_DDOT":0},{"OBJECT_NAME":"SL-16 R/B","OBJECT_ID":"1987-027B","EPOCH":"2026-04-02T14:53:23.773920","MEAN_MOTION":14.17167469,"ECCENTRICITY":0.00028862,"INCLINATION":71.0022,"RA_OF_ASC_NODE":226.0631,"ARG_OF_PERICENTER":82.6425,"MEAN_ANOMALY":277.5027,"EPHEMERIS_TYPE":0,"CLASSIFICATION_TYPE":"U","NORAD_CAT_ID":17590,"ELEMENT_SET_NO":999,"REV_AT_EPOCH":1873,"BSTAR":0.00015269269,"MEAN_MOTION_DOT":2.6e-6,"MEAN_MOTION_DDOT":0},{"OBJECT_NAME":"SL-14 R/B","OBJECT_ID":"1987-038B","EPOCH":"2026-04-02T18:00:13.455072","MEAN_MOTION":14.8539231,"ECCENTRICITY":0.0020756,"INCLINATION":82.4977,"RA_OF_ASC_NODE":274.1345,"ARG_OF_PERICENTER":85.5747,"MEAN_ANOMALY":274.784,"EPHEMERIS_TYPE":0,"CLASSIFICATION_TYPE":"U","NORAD_CAT_ID":17912,"ELEMENT_SET_NO":999,"REV_AT_EPOCH":8280,"BSTAR":6.6483e-5,"MEAN_MOTION_DOT":5.99e-6,"MEAN_MOTION_DDOT":0},{"OBJECT_NAME":"COSMOS 1844","OBJECT_ID":"1987-041A","EPOCH":"2026-04-02T15:43:38.950752","MEAN_MOTION":14.14560655,"ECCENTRICITY":0.00313856,"INCLINATION":70.9016,"RA_OF_ASC_NODE":343.6282,"ARG_OF_PERICENTER":342.7318,"MEAN_ANOMALY":17.2733,"EPHEMERIS_TYPE":0,"CLASSIFICATION_TYPE":"U","NORAD_CAT_ID":17973,"ELEMENT_SET_NO":999,"REV_AT_EPOCH":697,"BSTAR":0.00022089963,"MEAN_MOTION_DOT":3.78e-6,"MEAN_MOTION_DDOT":0},{"OBJECT_NAME":"SL-14 R/B","OBJECT_ID":"1987-055B","EPOCH":"2026-04-02T17:20:46.959936","MEAN_MOTION":14.85653247,"ECCENTRICITY":0.0019268,"INCLINATION":82.4998,"RA_OF_ASC_NODE":326.3831,"ARG_OF_PERICENTER":296.2354,"MEAN_ANOMALY":63.6882,"EPHEMERIS_TYPE":0,"CLASSIFICATION_TYPE":"U","NORAD_CAT_ID":18153,"ELEMENT_SET_NO":999,"REV_AT_EPOCH":7350,"BSTAR":5.5913e-5,"MEAN_MOTION_DOT":5.1e-6,"MEAN_MOTION_DDOT":0},{"OBJECT_NAME":"COSMOS 1867","OBJECT_ID":"1987-060A","EPOCH":"2026-04-02T02:59:00.079008","MEAN_MOTION":14.31506751,"ECCENTRICITY":0.00149007,"INCLINATION":65.0099,"RA_OF_ASC_NODE":241.0732,"ARG_OF_PERICENTER":280.0256,"MEAN_ANOMALY":79.9147,"EPHEMERIS_TYPE":0,"CLASSIFICATION_TYPE":"U","NORAD_CAT_ID":18187,"ELEMENT_SET_NO":999,"REV_AT_EPOCH":2329,"BSTAR":3.1889537e-5,"MEAN_MOTION_DOT":-1.5e-7,"MEAN_MOTION_DDOT":0},{"OBJECT_NAME":"SL-14 R/B","OBJECT_ID":"1988-001B","EPOCH":"2026-04-02T17:16:30.615456","MEAN_MOTION":14.85554489,"ECCENTRICITY":0.0018743,"INCLINATION":82.5157,"RA_OF_ASC_NODE":172.7664,"ARG_OF_PERICENTER":154.7371,"MEAN_ANOMALY":205.4767,"EPHEMERIS_TYPE":0,"CLASSIFICATION_TYPE":"U","NORAD_CAT_ID":18749,"ELEMENT_SET_NO":999,"REV_AT_EPOCH":4559,"BSTAR":6.4199e-5,"MEAN_MOTION_DOT":5.81e-6,"MEAN_MOTION_DDOT":0},{"OBJECT_NAME":"COSMOS 1933","OBJECT_ID":"1988-020A","EPOCH":"2026-04-02T15:37:23.127168","MEAN_MOTION":15.18220092,"ECCENTRICITY":0.00055173,"INCLINATION":82.5132,"RA_OF_ASC_NODE":227.1987,"ARG_OF_PERICENTER":111.7988,"MEAN_ANOMALY":248.3833,"EPHEMERIS_TYPE":0,"CLASSIFICATION_TYPE":"U","NORAD_CAT_ID":18958,"ELEMENT_SET_NO":999,"REV_AT_EPOCH":5386,"BSTAR":0.00031948893,"MEAN_MOTION_DOT":6.567e-5,"MEAN_MOTION_DDOT":0},{"OBJECT_NAME":"SL-3 R/B","OBJECT_ID":"1988-032B","EPOCH":"2026-04-02T21:24:34.296768","MEAN_MOTION":15.20188866,"ECCENTRICITY":0.0026869,"INCLINATION":97.5219,"RA_OF_ASC_NODE":76.0668,"ARG_OF_PERICENTER":146.2294,"MEAN_ANOMALY":214.0659,"EPHEMERIS_TYPE":0,"CLASSIFICATION_TYPE":"U","NORAD_CAT_ID":19046,"ELEMENT_SET_NO":999,"REV_AT_EPOCH":5578,"BSTAR":0.00043436,"MEAN_MOTION_DOT":9.431e-5,"MEAN_MOTION_DDOT":0},{"OBJECT_NAME":"SL-16 R/B","OBJECT_ID":"1988-039B","EPOCH":"2026-04-02T17:25:43.026816","MEAN_MOTION":14.19620351,"ECCENTRICITY":0.0023779,"INCLINATION":71.0174,"RA_OF_ASC_NODE":17.722,"ARG_OF_PERICENTER":300.0272,"MEAN_ANOMALY":59.8494,"EPHEMERIS_TYPE":0,"CLASSIFICATION_TYPE":"U","NORAD_CAT_ID":19120,"ELEMENT_SET_NO":999,"REV_AT_EPOCH":96179,"BSTAR":-5.3748e-6,"MEAN_MOTION_DOT":-6.0e-7,"MEAN_MOTION_DDOT":0},{"OBJECT_NAME":"COSMOS 1953","OBJECT_ID":"1988-050A","EPOCH":"2026-04-02T20:16:05.738304","MEAN_MOTION":15.28906163,"ECCENTRICITY":0.0011985,"INCLINATION":82.5066,"RA_OF_ASC_NODE":133.946,"ARG_OF_PERICENTER":47.219,"MEAN_ANOMALY":313.0055,"EPHEMERIS_TYPE":0,"CLASSIFICATION_TYPE":"U","NORAD_CAT_ID":19210,"ELEMENT_SET_NO":999,"REV_AT_EPOCH":4147,"BSTAR":0.00033318,"MEAN_MOTION_DOT":9.407e-5,"MEAN_MOTION_DDOT":0}]
