SL-14 R/B               
1 16496U 86006B   26092.41156712  .00001381  00000+0  14407-3 0  9993
2 16496  82.5258 237.4066 0076153 192.9885 166.9374 14.86857048152735
COSMOS 1743             
1 16719U 86034A   26092.83200104  .00081497  00000+0  97335-3 0  9990
2 16719  82.5319  48.4534 0005327 158.1506 201.9979 15.60716827184019
SL-14 R/B               
1 16792U 86046B   26092.65084717  .00000642  00000+0  70950-4 0  9992
2 16792  82.4813  57.5367 0023946 145.5770 214.7004 14.85614907129969
SL-14 R/B               
1 16882U 86055B   26092.80114074  .00000575  00000+0  63435-4 0  9994
2 16882  82.5169 104.0044 0017383 250.8832 282.0924 14.85664958122942
AJISAI (EGS)            
1 16908U 86061A   26092.80102957 -.00000092  00000+0  39193-4 0  9996
2 16908  50.0119  19.2050 0011359 349.0536  50.9425 12.44515665471004
SL-14 R/B               
1 17567U 87024B   26092.87750360  .00000771  00000+0  84920-4 0  9993
2 17567  82.5261  70.0233 0018267 175.6964 184.4413 14.86157422 91723
COSMOS 1833             
1 17589U 87027A   26092.78724979 -.00000314  00000+0 -14193-3 0  9996
2 17589  70.9165 275.3675 0023041 178.6747 181.4440 14.13044999 13724
SL-16 R/B               
1 17590U 87027B   26092.62041405  .00000260  00000+0  15269-3 0  9990
2 17590  71.0022 226.0631 0002886  82.6425 277.5027 14.17167469 18732
SL-14 R/B               
1 17912U 87038B   26092.75015573  .00000599  00000+0  66483-4 0  9991
2 17912  82.4977 274.1345 0020756  85.5747 274.7840 14.85392310 82807
COSMOS 1844             
1 17973U 87041A   26092.65531193  .00000378  00000+0  22090-3 0  9992
2 17973  70.9016 343.6282 0031385 342.7318  17.2733 14.14560655  6970
SL-14 R/B               
1 18153U 87055B   26092.72276574  .00000510  00000+0  55913-4 0  9994
2 18153  82.4998 326.3831 0019268 296.2354  63.6882 14.85653247 73506
COSMOS 1867             
1 18187U 87060A   26092.12430647 -.00000015  00000+0  31890-4 0  9993
2 18187  65.0099 241.0732 0014900 280.0256  79.9147 14.31506751 23298
SL-14 R/B               
1 18749U 88001B   26092.71979879  .00000581  00000+0  64199-4 0  9998
2 18749  82.5157 172.7664 0018743 154.7371 205.4767 14.85554489 45590
COSMOS 1933             
1 18958U 88020A   26092.65096212  .00006567  00000+0  31949-3 0  9991
2 18958  82.5132 227.1987 0005517 111.7988 248.3833 15.18220092 53866
SL-3 R/B                
1 19046U 88032B   26092.89206362  .00009431  00000+0  43436-3 0  9995
2 19046  97.5219  76.0668 0026869 146.2294 214.0659 15.20188866 55784
SL-16 R/B               
1 19120U 88039B   26092.72619244 -.00000060  00000+0 -53748-5 0  9994
2 19120  71.0174  17.7220 0023779 300.0272  59.8494 14.19620351961799
COSMOS 1953             
1 19210U 88050A   26092.84451086  .00009407  00000+0  33318-3 0  9999
2 19210  82.5066 133.9460 0011985  47.2190 313.0055 15.28906163 41479
